[
    {
        "CCSDS_OMM_VERS": "3.0",
        "COMMENT": "GENERATED VIA SPACE-TRACK.ORG API",
        "CREATION_DATE": "2025-02-28T22:26:17",
        "ORIGINATOR": "18 SPCS",
        "OBJECT_NAME": "GALILEO 26 (2C2)",
        "OBJECT_ID": "2018-060B",
        "CENTER_NAME": "EARTH",
        "REF_FRAME": "TEME",
        "TIME_SYSTEM": "UTC",
        "MEAN_ELEMENT_THEORY": "SGP4",
        "EPOCH": "2025-02-28T07:45:19.258848",
        "MEAN_MOTION": "1.70474977",
        "ECCENTRICITY": "0.00042080",
        "INCLINATION": "57.2902",
        "RA_OF_ASC_NODE": "354.5708",
        "ARG_OF_PERICENTER": "282.3447",
        "MEAN_ANOMALY": "77.6114",
        "EPHEMERIS_TYPE": "0",
        "CLASSIFICATION_TYPE": "U",
        "NORAD_CAT_ID": "43565",
        "ELEMENT_SET_NO": "999",
        "REV_AT_EPOCH": "4113",
        "BSTAR": "0.00000000000000",
        "MEAN_MOTION_DOT": "-0.00000082",
        "MEAN_MOTION_DDOT": "0.0000000000000",
        "SEMIMAJOR_AXIS": "29600.207",
        "PERIOD": "844.699",
        "APOAPSIS": "23234.528",
        "PERIAPSIS": "23209.616",
        "OBJECT_TYPE": "PAYLOAD",
        "RCS_SIZE": "LARGE",
        "COUNTRY_CODE": "ESA",
        "LAUNCH_DATE": "2018-07-25",
        "SITE": "FRGUI",
        "DECAY_DATE": null,
        "FILE": "4655242",
        "GP_ID": "281935640",
        "TLE_LINE0": "0 GALILEO 26 (2C2)",
        "TLE_LINE1": "1 43565U 18060B   25059.32313957 -.00000082  00000-0  00000+0 0  9992",
        "TLE_LINE2": "2 43565  57.2902 354.5708 0004208 282.3447  77.6114  1.70474977 41137"
    }
]